Satellite: CO-55
Catalog number: 27844
Epoch time:      08205.99155813
Element set:     357
Inclination:      098.7151 deg
RA of node:       213.7456 deg
Eccentricity:    0.0010539
Arg of perigee:   015.7503 deg
Mean anomaly:     344.4012 deg
Mean motion:   14.20588888 rev/day
Decay rate:        2.0e-07 rev/day^2
Epoch rev:           26266
Checksum:              309

Satellite: CO-57
Catalog number: 27848
Epoch time:      08206.55814194
Element set:     308
Inclination:      098.7161 deg
RA of node:       213.3940 deg
Eccentricity:    0.0010505
Arg of perigee:   016.8340 deg
Mean anomaly:     343.3212 deg
Mean motion:   14.20397816 rev/day
Decay rate:        3.9e-07 rev/day^2
Epoch rev:           26271
Checksum:              292

Satellite: AO-51
Catalog number: 28375
Epoch time:      08206.69375311
Element set:     156
Inclination:      098.0691 deg
RA of node:       229.1516 deg
Eccentricity:    0.0085281
Arg of perigee:   039.2447 deg
Mean anomaly:     321.4884 deg
Mean motion:   14.40613940 rev/day
Decay rate:       -6.0e-08 rev/day^2
Epoch rev:           21380
Checksum:              301

Satellite: CO-56
Catalog number: 28941
Epoch time:      08206.83791568
Element set:     234
Inclination:      098.1096 deg
RA of node:       322.7504 deg
Eccentricity:    0.0160224
Arg of perigee:   263.9088 deg
Mean anomaly:     094.3874 deg
Mean motion:   15.58357039 rev/day
Decay rate:     1.4105e-04 rev/day^2
Epoch rev:           13590
Checksum:              332

Satellite: CP4
Catalog number: 31122
Epoch time:      08206.15645384
Element set:     394
Inclination:      098.0418 deg
RA of node:       270.3776 deg
Eccentricity:    0.0085087
Arg of perigee:   213.0049 deg
Mean anomaly:     146.5834 deg
Mean motion:   14.55145118 rev/day
Decay rate:       5.50e-06 rev/day^2
Epoch rev:            6745
Checksum:              297

Satellite: CP3
Catalog number: 31128
Epoch time:      08206.89275740
Element set:     388
Inclination:      098.0346 deg
RA of node:       268.7340 deg
Eccentricity:    0.0102170
Arg of perigee:   217.4964 deg
Mean anomaly:     141.9063 deg
Mean motion:   14.51961686 rev/day
Decay rate:       -4.8e-07 rev/day^2
Epoch rev:            6740
Checksum:              310

/EX
SB KEPS @ AMSAT  $ORB08206.W
Orbital Elements  08206.WEATHER

HR AMSAT ORBITAL ELEMENTS FOR WEATHER SATELLITES
FROM WA5QGD FORT WORTH,TX July 24, 2008
Send Subscribe/unsubscribe to KEPS at 
http://www.amsat.org/mailman/listinfo/keps
BID: ORB08206.W
TO ALL RADIO AMATEURS BT

Satellite: NOAA-10
Catalog number: 16969
Epoch time:      08206.51742263
Element set:     217
Inclination:      098.7213 deg
RA of node:       228.4101 deg
Eccentricity:    0.0013288
Arg of perigee:   073.7611 deg
Mean anomaly:     286.5046 deg
Mean motion:   14.27365106 rev/day
Decay rate:       1.24e-06 rev/day^2
Epoch rev:           13676
Checksum:              289

Satellite: NOAA-11
Catalog number: 19531
Epoch time:      08206.15276406
Element set:     247
Inclination:      098.7987 deg
RA of node:       294.9636 deg
Eccentricity:    0.0011224
Arg of perigee:   326.8083 deg
Mean anomaly:     033.2379 deg
Mean motion:   14.14874849 rev/day
Decay rate:       2.92e-06 rev/day^2
Epoch rev:            2313
Checksum:              317

Satellite: NOAA-12
Catalog number: 21263
Epoch time:      08206.68266582
Element set:     765
Inclination:      098.7670 deg
RA of node:       208.6306 deg
Eccentricity:    0.0013030
Arg of perigee:   021.0229 deg
Mean anomaly:     339.1483 deg
Mean motion:   14.25539613 rev/day
Decay rate:        1.1e-07 rev/day^2
Epoch rev:           89373
Checksum:              292

Satellite: MET-3/5
Catalog number: 21655
Epoch time:      08205.96228591
Element set:    0477
Inclination:      082.5538 deg
RA of node:       078.4059 deg
Eccentricity:    0.0012411
Arg of perigee:   285.3382 deg
Mean anomaly:     074.6368 deg
Mean motion:   13.17016457 rev/day
Decay rate:        5.1e-07 rev/day^2
Epoch rev:           81442
Checksum:              311

Satellite: MET-2/21
Catalog number: 22782
Epoch time:      08205.65577829
Element set:    0205
Inclination:      082.5457 deg
RA of node:       082.6502 deg
Eccentricity:    0.0022151
Arg of perigee:   184.1476 deg
Mean anomaly:     175.9507 deg
Mean motion:   13.83630891 rev/day
Decay rate:        5.4e-07 rev/day^2
Epoch rev:           75217
Checksum:              311

Satellite: OKEAN-4
Catalog number: 23317
Epoch time:      08206.51368844
Element set:     648
Inclination:      082.5396 deg
RA of node:       280.2414 deg
Eccentricity:    0.0022513
Arg of perigee:   009.0475 deg
Mean anomaly:     351.1167 deg
Mean motion:   14.82624926 rev/day
Decay rate:       1.75e-06 rev/day^2
Epoch rev:           74381
Checksum:              299

Satellite: NOAA-14
Catalog number: 23455
Epoch time:      08206.20859410
Element set:     235
Inclination:      098.9446 deg
RA of node:       278.4709 deg
Eccentricity:    0.0009943
Arg of perigee:   045.0506 deg
Mean anomaly:     315.1501 deg
Mean motion:   14.13744154 rev/day
Decay rate:      -2.11e-06 rev/day^2
Epoch rev:           69958
Checksum:              303

Satellite: SICH-1
Catalog number: 23657
Epoch time:      08205.82026030
Element set:    0448
Inclination:      082.5259 deg
RA of node:       061.8789 deg
Eccentricity:    0.0024361
Arg of perigee:   003.8886 deg
Mean anomaly:     356.2508 deg
Mean motion:   14.81593134 rev/day
Decay rate:        9.7e-07 rev/day^2
Epoch rev:           69564
Checksum:              320

Satellite: NOAA-15
Catalog number: 25338
Epoch time:      08206.15772828
Element set:     554
Inclination:      098.5558 deg
RA of node:       197.0787 deg
Eccentricity:    0.0009715
Arg of perigee:   297.8636 deg
Mean anomaly:     062.1604 deg
Mean motion:   14.24716242 rev/day
Decay rate:        9.5e-07 rev/day^2
Epoch rev:           53006
Checksum:              330

Satellite: RESURS
Catalog number: 25394
Epoch time:      08205.92347138
Element set:    0997
Inclination:      098.3826 deg
RA of node:       248.2040 deg
Eccentricity:    0.0002424
Arg of perigee:   083.1776 deg
Mean anomaly:     276.9680 deg
Mean motion:   14.24165586 rev/day
Decay rate:        1.7e-07 rev/day^2
Epoch rev:           52167
Checksum:              319

Satellite: FENGYUN1
Catalog number: 25730
Epoch time:      08206.51495649
Element set:     527
Inclination:      098.7218 deg
RA of node:       181.0342 deg
Eccentricity:    0.0022652
Arg of perigee:   064.3824 deg
Mean anomaly:     295.9679 deg
Mean motion:   14.07730144 rev/day
Decay rate:       2.51e-06 rev/day^2
Epoch rev:           47421
Checksum:              302

