CO-55
1 27844U 03031E   08205.99155813  .00000020  00000-0  29843-4 0  3578
2 27844 098.7151 213.7456 0010539 015.7503 344.4012 14.20588888262667
CO-57
1 27848U 03031J   08206.55814194  .00000039  00000-0  38794-4 0  3080
2 27848 098.7161 213.3940 0010505 016.8340 343.3212 14.20397816262715
AO-51
1 28375U 04025K   08206.69375311 -.00000006  00000-0  10782-4 0  1561
2 28375 098.0691 229.1516 0085281 039.2447 321.4884 14.40613940213805
CO-56
1 28941U 06005C   08206.83791568  .00014105  26379-5  10585-3 0  2345
2 28941 098.1096 322.7504 0160224 263.9088 094.3874 15.58357039135902
CP4
1 31122U 07012F   08206.15645384  .00000550  00000-0  13192-3 0  3949
2 31122 098.0418 270.3776 0085087 213.0049 146.5834 14.55145118 67458
CP3
1 31128U 07012M   08206.89275740 -.00000048  00000-0  00000 0 0  3887
2 31128 098.0346 268.7340 0102170 217.4964 141.9063 14.51961686 67409
NOAA-10
1 16969U 86073A   08206.51742263  .00000124  00000-0  68551-4 0  2170
2 16969 098.7213 228.4101 0013288 073.7611 286.5046 14.27365106136767
NOAA-11
1 19531U 88089A   08206.15276406  .00000292  00000-0  17363-3 0  2471
2 19531 098.7987 294.9636 0011224 326.8083 033.2379 14.14874849 23134
NOAA-12
1 21263U 91032A   08206.68266582  .00000011  00000-0  23733-4 0  7653
2 21263 098.7670 208.6306 0013030 021.0229 339.1483 14.25539613893731
MET-3/5
1 21655U 91056A   08205.96228591  .00000051  00000-0  10000-3 0 04778
2 21655 082.5538 078.4059 0012411 285.3382 074.6368 13.17016457814423
MET-2/21
1 22782U 93055A   08205.65577829  .00000054  00000-0  35076-4 0 02051
2 22782 082.5457 082.6502 0022151 184.1476 175.9507 13.83630891752177
OKEAN-4
1 23317U 94066A   08206.51368844  .00000175  00000-0  18665-4 0  6480
2 23317 082.5396 280.2414 0022513 009.0475 351.1167 14.82624926743811
NOAA-14
1 23455U 94089A   08206.20859410 -.00000211  00000-0 -87628-4 0  2358
2 23455 098.9446 278.4709 0009943 045.0506 315.1501 14.13744154699580
SICH-1
1 23657U 95046A   08205.82026030  .00000097  00000-0  92883-5 0 04483
2 23657 082.5259 061.8789 0024361 003.8886 356.2508 14.81593134695642
NOAA-15
1 25338U 98030A   08206.15772828  .00000095  00000-0  59412-4 0  5543
2 25338 098.5558 197.0787 0009715 297.8636 062.1604 14.24716242530061
RESURS
1 25394U 98043A   08205.92347138  .00000017  00000-0  25313-4 0 09973
2 25394 098.3826 248.2040 0002424 083.1776 276.9680 14.24165586521676
FENGYUN1
1 25730U 99025A   08206.51495649  .00000251  00000-0  17321-3 0  5273
2 25730 098.7218 181.0342 0022652 064.3824 295.9679 14.07730144474213
